ONEWEB-0156             
1 48052U 21025L   24248.56160695  .00000326  00000+0  85759-3 0  9994
2 48052  87.8856  89.6857 0001678  83.3609 276.7711 13.13470246168161
ONEWEB-0161             
1 48053U 21025M   24248.61078851 -.00000231  00000+0 -66645-3 0  9993
2 48053  87.8860  89.6850 0001828  88.1238 272.0100 13.13470237168103
ONEWEB-0158             
1 48054U 21025N   24248.57270779  .00000062  00000+0  13454-3 0  9992
2 48054  87.8856  89.6812 0001582  79.6218 280.5090 13.13468524168228
ONEWEB-0157             
1 48055U 21025P   24248.59652809 -.00000182  00000+0 -53296-3 0  9996
2 48055  87.8855  89.6904 0001857  82.6770 277.4570 13.13470229168168
ONEWEB-0162             
1 48056U 21025Q   24248.56002276  .00000348  00000+0  91908-3 0  9995
2 48056  87.8854  89.6924 0001688  82.2633 277.8688 13.13468985168133
ONEWEB-0155             
1 48057U 21025R   24248.58065048 -.00000145  00000+0 -43084-3 0  9993
2 48057  87.8856  89.6997 0001794  91.7033 268.4301 13.13461353168278
ONEWEB-0149             
1 48058U 21025S   24248.60128058 -.00000100  00000+0 -30853-3 0  9999
2 48058  87.8855  89.6917 0001759  77.1350 282.9976 13.13466536168087
ONEWEB-0148             
1 48059U 21025T   24248.56638069  .00000258  00000+0  67200-3 0  9991
2 48059  87.8859  89.7117 0002178  72.2594 287.8773 13.13470360168200
ONEWEB-0160             
1 48060U 21025U   24248.58223948 -.00000169  00000+0 -49715-3 0  9995
2 48060  87.8860  89.7045 0000757  73.4025 286.7188 13.13469321168154
ONEWEB-0163             
1 48061U 21025V   24248.56796669  .00000207  00000+0  53272-3 0  9993
2 48061  87.8856  89.6978 0001964  86.5592 273.5761 13.13469167168282
ONEWEB-0159             
1 48062U 21025W   24248.55685644  .00000357  00000+0  94393-3 0  9998
2 48062  87.8856  89.6827 0001889  82.2795 277.8549 13.13471067168193
ONEWEB-0164             
1 48063U 21025X   24248.61555793  .00000303  00000+0  79566-3 0  9993
2 48063  87.8855  89.6812 0001609  86.3684 273.7629 13.13472559168189
ONEWEB-0167             
1 48064U 21025Y   24248.56875361  .00000222  00000+0  57173-3 0  9994
2 48064  87.8857  89.7036 0001900  86.0778 274.0569 13.13466972168163
ONEWEB-0166             
1 48065U 21025Z   24248.59016658 -.00000269  00000+0 -77050-3 0  9993
2 48065  87.8853  89.6795 0001785  78.6197 281.5133 13.13470872168247
ONEWEB-0151             
1 48066U 21025AA  24248.59175284 -.00000259  00000+0 -74474-3 0  9991
2 48066  87.8855  89.6945 0001627  88.9507 271.1808 13.13471772168188
ONEWEB-0170             
1 48067U 21025AB  24248.59969316 -.00000117  00000+0 -35520-3 0  9991
2 48067  87.8855  89.6958 0001244 103.4548 256.6720 13.13470538168142
ONEWEB-0168             
1 48068U 21025AC  24248.58541309 -.00000187  00000+0 -54787-3 0  9992
2 48068  87.8860  89.6707 0001747  84.8422 275.2906 13.13470281168151
ONEWEB-0173             
1 48069U 21025AD  24248.57747735 -.00000061  00000+0 -20246-3 0  9997
2 48069  87.8859  89.6822 0002012  95.2270 264.9089 13.13469971168398
ONEWEB-0171             
1 48070U 21025AE  24248.61397519  .00000226  00000+0  58465-3 0  9990
2 48070  87.8858  89.7109 0001686  89.0190 271.1132 13.13470441168210
ONEWEB-0172             
1 48071U 21025AF  24248.59333928 -.00000234  00000+0 -67609-3 0  9993
2 48071  87.8859  89.6814 0001751  90.4712 269.6618 13.13470988169109
ONEWEB-0174             
1 48072U 21025AG  24248.57589403  .00000030  00000+0  47725-4 0  9993
2 48072  87.8859  89.6991 0001739  80.5036 279.6290 13.13469537168420
ONEWEB-0175             
1 48073U 21025AH  24248.60445475 -.00000192  00000+0 -56056-3 0  9995
2 48073  87.8850  89.6770 0001489  97.2217 262.9082 13.13472020168082
ONEWEB-0177             
1 48074U 21025AJ  24248.61715242  .00000346  00000+0  91320-3 0  9991
2 48074  87.8854  89.6837 0002103  85.8946 274.2423 13.13472733168274
ONEWEB-0178             
1 48075U 21025AK  24248.63475921  .00000355  00000+0  93607-3 0  9991
2 48075  87.8863  89.7036 0001858  85.8305 274.3037 13.13469596168323
ONEWEB-0108             
1 48076U 21025AL  24248.59493204 -.00000265  00000+0 -76086-3 0  9995
2 48076  87.8853  89.6851 0001588  76.8483 283.2824 13.13470203168245
ONEWEB-0169             
1 48077U 21025AM  24248.62667383  .00000438  00000+0  11639-2 0  9993
2 48077  87.8857  89.6908 0001623  76.8828 283.2482 13.13469399168149
ONEWEB-0176             
1 48210U 21031A   24248.52415324 -.00000149  00000+0 -43634-3 0  9996
2 48210  87.8932  59.1000 0001699  92.2720 267.8604 13.14503127162836
ONEWEB-0184             
1 48211U 21031B   24248.49720579 -.00000071  00000+0 -22581-3 0  9996
2 48211  87.8931  59.0860 0001916 123.7052 236.4261 13.14500020162806
ONEWEB-0179             
1 48212U 21031C   24248.54319846  .00000231  00000+0  58926-3 0  9992
2 48212  87.8935  59.0830 0001834  90.6482 269.4858 13.14500956162857
ONEWEB-0180             
1 48213U 21031D   24248.50038806 -.00000114  00000+0 -34204-3 0  9998
2 48213  87.8932  59.0873 0001933  91.3605 268.7746 13.14501469162732
ONEWEB-0218             
1 48214U 21031E   24248.52258498  .00000034  00000+0  56494-4 0  9997
2 48214  87.8930  59.0845 0002272 119.4106 240.7251 13.14501858162895
ONEWEB-0209             
1 48215U 21031F   24248.51148514 -.00000107  00000+0 -32297-3 0  9991
2 48215  87.8931  59.1225 0001949  90.3445 269.7908 13.14501433162892
ONEWEB-0198             
1 48216U 21031G   24248.49563224 -.00000060  00000+0 -19555-3 0  9998
2 48216  87.8935  59.1298 0002004 101.3233 258.8122 13.14502037163000
ONEWEB-0189             
1 48217U 21031H   24248.50830225 -.00000325  00000+0 -91200-3 0  9990
2 48217  87.8932  59.1026 0002103 101.1337 259.0029 13.14500487162746
ONEWEB-0196             
1 48218U 21031J   24248.56221918  .00000081  00000+0  18404-3 0  9992
2 48218  87.8936  59.0971 0001720  94.1497 265.9829 13.14503452162740
ONEWEB-0183             
1 48219U 21031K   24248.53685720  .00000210  00000+0  53159-3 0  9995
2 48219  87.8932  59.1179 0001850  86.9795 273.1546 13.14501317162848
ONEWEB-0185             
1 48220U 21031L   24248.48688763 -.00000115  00000+0 -34424-3 0  9991
2 48220  87.8934  59.0995 0001892  88.1081 272.0265 13.14503481162766
ONEWEB-0187             
1 48221U 21031M   24248.53289674  .00000225  00000+0  57122-3 0  9996
2 48221  87.8934  59.1239 0001856  88.5117 271.6225 13.14501183162783
ONEWEB-0192             
1 48222U 21031N   24248.51306635 -.00000079  00000+0 -24784-3 0  9999
2 48222  87.8934  59.1253 0001765  95.3680 264.7651 13.14500878162696
ONEWEB-0219             
1 48223U 21031P   24248.49245627 -.00001043  00000+0 -28476-2 0  9993
2 48223  87.8932  59.1031 0001932  90.5083 269.6268 13.14496151162897
ONEWEB-0202             
1 48224U 21031Q   24248.47342690  .00000274  00000+0  70372-3 0  9996
2 48224  87.8933  59.1254 0002312 110.2722 249.8656 13.14501070162875
ONEWEB-0204             
1 48225U 21031R   24248.50750894 -.00000162  00000+0 -47176-3 0  9994
2 48225  87.8932  59.1306 0001716  78.7719 281.3604 13.14500051162775
ONEWEB-0205             
1 48226U 21031S   24248.48292731  .00000154  00000+0  38197-3 0  9995
2 48226  87.8934  59.1067 0001925  91.8472 268.2878 13.14503628162787
ONEWEB-0206             
1 48227U 21031T   24248.53211170  .00000139  00000+0  34154-3 0  9992
2 48227  87.8929  59.0844 0001922  87.6210 272.5140 13.14501389162742
ONEWEB-0182             
1 48228U 21031U   24248.52732846  .00000133  00000+0  32297-3 0  9990
2 48228  87.8934  59.1159 0001687  85.0005 275.1317 13.14504804162954
ONEWEB-0186             
1 48229U 21031V   24248.53843822  .00000266  00000+0  68316-3 0  9997
2 48229  87.8934  59.0770 0001746  93.1052 267.0277 13.14505816162905
ONEWEB-0181             
1 48230U 21031W   24248.51622647 -.00000102  00000+0 -30837-3 0  9995
2 48230  87.8933  59.1515 0001809  96.6520 263.4816 13.14504381162750
ONEWEB-0188             
1 48231U 21031X   24248.47818984  .00000214  00000+0  54138-3 0  9994
2 48231  87.8933  59.1539 0001791  90.4832 269.6503 13.14502214162658
ONEWEB-0220             
1 48232U 21031Y   24248.51781203 -.00000030  00000+0 -11482-3 0  9996
2 48232  87.8926  59.1058 0002092  89.5368 270.6001 13.14504531162924
ONEWEB-0165             
1 48233U 21031Z   24248.54636328  .00000330  00000+0  85570-3 0  9997
2 48233  87.8935  59.1221 0001879  94.4725 265.6620 13.14504464162882
ONEWEB-0199             
1 48234U 21031AA  24248.53050205  .00000131  00000+0  31975-3 0  9990
2 48234  87.8932  59.0936 0001501  92.4862 267.6440 13.14502751162782
ONEWEB-0203             
1 48235U 21031AB  24248.59709536 -.00000039  00000+0 -13881-3 0  9990
2 48235  87.8932  59.0820 0001459 105.8294 254.2997 13.14504982162805
ONEWEB-0197             
1 48236U 21031AC  24248.49640015 -.00000283  00000+0 -79869-3 0  9995
2 48236  87.8934  59.1113 0001725  79.9610 280.1715 13.14503501162704
ONEWEB-0194             
1 48237U 21031AD  24248.55112946  .00000323  00000+0  83678-3 0  9996
2 48237  87.8936  59.0941 0001486  95.7753 264.3546 13.14500656162886
ONEWEB-0193             
1 48238U 21031AE  24248.49085725 -.00000019  00000+0 -86343-4 0  9991
2 48238  87.8935  59.1142 0001737  95.7963 264.3365 13.14499744162820
ONEWEB-0191             
1 48239U 21031AF  24248.50196571 -.00000072  00000+0 -22758-3 0  9994
2 48239  87.8931  59.0931 0001735  95.5775 264.5553 13.14502649162683
ONEWEB-0195             
1 48240U 21031AG  24248.47897494  .00000226  00000+0  57446-3 0  9995
2 48240  87.8931  59.0967 0002059  98.9402 261.1960 13.14500362162661
ONEWEB-0201             
1 48241U 21031AH  24248.46786529  .00000247  00000+0  63219-3 0  9999
2 48241  87.8935  59.1362 0001841  92.9095 267.2245 13.14504078162892
ONEWEB-0207             
1 48242U 21031AJ  24248.52336372  .00000054  00000+0  11217-3 0  9991
2 48242  87.8932  59.0898 0001841  85.0507 275.0833 13.14504224162819
